CCSDS_OMM_VERS = 2.0
CREATION_DATE  = 
ORIGINATOR     = 

OBJECT_NAME    = STARLINK-36615
OBJECT_ID      = 2026-020E
CENTER_NAME    = EARTH
REF_FRAME      = TEME
TIME_SYSTEM    = UTC
MEAN_ELEMENT_THEORY = SGP/SGP4

EPOCH          = 2026-02-18T00:13:47.122752
MEAN_MOTION    = 15.82060868
ECCENTRICITY   = .0002253
INCLINATION    = 42.9981
RA_OF_ASC_NODE = 261.4575
ARG_OF_PERICENTER = 271.3641
MEAN_ANOMALY   = 88.6973

EPHEMERIS_TYPE = 0
CLASSIFICATION_TYPE = U
NORAD_CAT_ID   = 67621
ELEMENT_SET_NO = 999
REV_AT_EPOCH   = 298
BSTAR          = .1081E-2
MEAN_MOTION_DOT = .23384E-2
MEAN_MOTION_DDOT = 0

CCSDS_OMM_VERS = 2.0
CREATION_DATE  = 
ORIGINATOR     = 

OBJECT_NAME    = STARLINK-36614
OBJECT_ID      = 2026-020F
CENTER_NAME    = EARTH
REF_FRAME      = TEME
TIME_SYSTEM    = UTC
MEAN_ELEMENT_THEORY = SGP/SGP4

EPOCH          = 2026-02-17T17:12:06.177888
MEAN_MOTION    = 15.76615166
ECCENTRICITY   = .00023114
INCLINATION    = 42.9968
RA_OF_ASC_NODE = 263.5778
ARG_OF_PERICENTER = 246.2195
MEAN_ANOMALY   = 113.8433

EPHEMERIS_TYPE = 0
CLASSIFICATION_TYPE = U
NORAD_CAT_ID   = 67622
ELEMENT_SET_NO = 999
REV_AT_EPOCH   = 293
BSTAR          = .21427946E-2
MEAN_MOTION_DOT = .368059E-2
MEAN_MOTION_DDOT = 0

CCSDS_OMM_VERS = 2.0
CREATION_DATE  = 
ORIGINATOR     = 

OBJECT_NAME    = STARLINK-36600
OBJECT_ID      = 2026-020G
CENTER_NAME    = EARTH
REF_FRAME      = TEME
TIME_SYSTEM    = UTC
MEAN_ELEMENT_THEORY = SGP/SGP4

EPOCH          = 2026-02-18T00:51:26.943264
MEAN_MOTION    = 15.76378664
ECCENTRICITY   = .0002074
INCLINATION    = 42.9971
RA_OF_ASC_NODE = 261.6708
ARG_OF_PERICENTER = 258.9883
MEAN_ANOMALY   = 101.0753

EPHEMERIS_TYPE = 0
CLASSIFICATION_TYPE = U
NORAD_CAT_ID   = 67623
ELEMENT_SET_NO = 999
REV_AT_EPOCH   = 298
BSTAR          = .16794E-2
MEAN_MOTION_DOT = .282456E-2
MEAN_MOTION_DDOT = 0

CCSDS_OMM_VERS = 2.0
CREATION_DATE  = 
ORIGINATOR     = 

OBJECT_NAME    = STARLINK-36439
OBJECT_ID      = 2026-020H
CENTER_NAME    = EARTH
REF_FRAME      = TEME
TIME_SYSTEM    = UTC
MEAN_ELEMENT_THEORY = SGP/SGP4

EPOCH          = 2026-02-18T04:00:01.999584
MEAN_MOTION    = 15.76379614
ECCENTRICITY   = .0001852
INCLINATION    = 42.9982
RA_OF_ASC_NODE = 260.7196
ARG_OF_PERICENTER = 263.3505
MEAN_ANOMALY   = 183.0129

EPHEMERIS_TYPE = 0
CLASSIFICATION_TYPE = U
NORAD_CAT_ID   = 67624
ELEMENT_SET_NO = 999
REV_AT_EPOCH   = 425
BSTAR          = -.14671E-3
MEAN_MOTION_DOT = -.24324E-3
MEAN_MOTION_DDOT = 0

CCSDS_OMM_VERS = 2.0
CREATION_DATE  = 
ORIGINATOR     = 

OBJECT_NAME    = STARLINK-36438
OBJECT_ID      = 2026-020J
CENTER_NAME    = EARTH
REF_FRAME      = TEME
TIME_SYSTEM    = UTC
MEAN_ELEMENT_THEORY = SGP/SGP4

EPOCH          = 2026-02-18T00:45:09.005472
MEAN_MOTION    = 15.76428463
ECCENTRICITY   = .000173
INCLINATION    = 42.9971
RA_OF_ASC_NODE = 261.6350
ARG_OF_PERICENTER = 267.0683
MEAN_ANOMALY   = 92.9988

EPHEMERIS_TYPE = 0
CLASSIFICATION_TYPE = U
NORAD_CAT_ID   = 67625
ELEMENT_SET_NO = 999
REV_AT_EPOCH   = 298
BSTAR          = .16915E-2
MEAN_MOTION_DOT = .285205E-2
MEAN_MOTION_DDOT = 0

CCSDS_OMM_VERS = 2.0
CREATION_DATE  = 
ORIGINATOR     = 

OBJECT_NAME    = STARLINK-36436
OBJECT_ID      = 2026-020K
CENTER_NAME    = EARTH
REF_FRAME      = TEME
TIME_SYSTEM    = UTC
MEAN_ELEMENT_THEORY = SGP/SGP4

EPOCH          = 2026-02-17T22:36:15.858144
MEAN_MOTION    = 15.82057753
ECCENTRICITY   = .0002173
INCLINATION    = 42.9968
RA_OF_ASC_NODE = 261.8078
ARG_OF_PERICENTER = 315.8447
MEAN_ANOMALY   = 44.2251

EPHEMERIS_TYPE = 0
CLASSIFICATION_TYPE = U
NORAD_CAT_ID   = 67626
ELEMENT_SET_NO = 999
REV_AT_EPOCH   = 297
BSTAR          = .19514E-2
MEAN_MOTION_DOT = .432403E-2
MEAN_MOTION_DDOT = 0

CCSDS_OMM_VERS = 2.0
CREATION_DATE  = 
ORIGINATOR     = 

OBJECT_NAME    = STARLINK-36502
OBJECT_ID      = 2026-020L
CENTER_NAME    = EARTH
REF_FRAME      = TEME
TIME_SYSTEM    = UTC
MEAN_ELEMENT_THEORY = SGP/SGP4

EPOCH          = 2026-02-17T22:37:18.751296
MEAN_MOTION    = 15.82072057
ECCENTRICITY   = .0002089
INCLINATION    = 42.9963
RA_OF_ASC_NODE = 261.8137
ARG_OF_PERICENTER = 323.3551
MEAN_ANOMALY   = 36.7178

EPHEMERIS_TYPE = 0
CLASSIFICATION_TYPE = U
NORAD_CAT_ID   = 67627
ELEMENT_SET_NO = 999
REV_AT_EPOCH   = 297
BSTAR          = .19393E-2
MEAN_MOTION_DOT = .429874E-2
MEAN_MOTION_DDOT = 0

CCSDS_OMM_VERS = 2.0
CREATION_DATE  = 
ORIGINATOR     = 

OBJECT_NAME    = STARLINK-36532
OBJECT_ID      = 2026-020M
CENTER_NAME    = EARTH
REF_FRAME      = TEME
TIME_SYSTEM    = UTC
MEAN_ELEMENT_THEORY = SGP/SGP4

EPOCH          = 2026-02-18T01:36:16.792128
MEAN_MOTION    = 15.82083806
ECCENTRICITY   = .0002718
INCLINATION    = 42.9958
RA_OF_ASC_NODE = 261.0227
ARG_OF_PERICENTER = 247.8769
MEAN_ANOMALY   = 112.1814

EPHEMERIS_TYPE = 0
CLASSIFICATION_TYPE = U
NORAD_CAT_ID   = 67628
ELEMENT_SET_NO = 999
REV_AT_EPOCH   = 299
BSTAR          = .13793E-2
MEAN_MOTION_DOT = .301204E-2
MEAN_MOTION_DDOT = 0

CCSDS_OMM_VERS = 2.0
CREATION_DATE  = 
ORIGINATOR     = 

OBJECT_NAME    = STARLINK-36367
OBJECT_ID      = 2026-020N
CENTER_NAME    = EARTH
REF_FRAME      = TEME
TIME_SYSTEM    = UTC
MEAN_ELEMENT_THEORY = SGP/SGP4

EPOCH          = 2026-02-18T04:00:01.999584
MEAN_MOTION    = 15.76375178
ECCENTRICITY   = .0001877
INCLINATION    = 42.9985
RA_OF_ASC_NODE = 260.5647
ARG_OF_PERICENTER = 290.2509
MEAN_ANOMALY   = 218.3139

EPHEMERIS_TYPE = 0
CLASSIFICATION_TYPE = U
NORAD_CAT_ID   = 67629
ELEMENT_SET_NO = 999
REV_AT_EPOCH   = 425
BSTAR          = .12481E-3
MEAN_MOTION_DOT = .19892E-3
MEAN_MOTION_DDOT = 0

CCSDS_OMM_VERS = 2.0
CREATION_DATE  = 
ORIGINATOR     = 

OBJECT_NAME    = STARLINK-36416
OBJECT_ID      = 2026-020P
CENTER_NAME    = EARTH
REF_FRAME      = TEME
TIME_SYSTEM    = UTC
MEAN_ELEMENT_THEORY = SGP/SGP4

EPOCH          = 2026-02-17T23:10:43.260672
MEAN_MOTION    = 15.76491937
ECCENTRICITY   = .0001414
INCLINATION    = 42.9960
RA_OF_ASC_NODE = 262.0020
ARG_OF_PERICENTER = 292.4581
MEAN_ANOMALY   = 67.6139

EPHEMERIS_TYPE = 0
CLASSIFICATION_TYPE = U
NORAD_CAT_ID   = 67630
ELEMENT_SET_NO = 999
REV_AT_EPOCH   = 297
BSTAR          = .1776E-2
MEAN_MOTION_DOT = .30089E-2
MEAN_MOTION_DDOT = 0

CCSDS_OMM_VERS = 2.0
CREATION_DATE  = 
ORIGINATOR     = 

OBJECT_NAME    = STARLINK-36527
OBJECT_ID      = 2026-020Q
CENTER_NAME    = EARTH
REF_FRAME      = TEME
TIME_SYSTEM    = UTC
MEAN_ELEMENT_THEORY = SGP/SGP4

EPOCH          = 2026-02-18T01:34:43.649472
MEAN_MOTION    = 15.82088525
ECCENTRICITY   = .0002262
INCLINATION    = 42.9954
RA_OF_ASC_NODE = 261.0160
ARG_OF_PERICENTER = 287.6755
MEAN_ANOMALY   = 72.3870

EPHEMERIS_TYPE = 0
CLASSIFICATION_TYPE = U
NORAD_CAT_ID   = 67631
ELEMENT_SET_NO = 999
REV_AT_EPOCH   = 299
BSTAR          = .11741E-2
MEAN_MOTION_DOT = .254984E-2
MEAN_MOTION_DDOT = 0

CCSDS_OMM_VERS = 2.0
CREATION_DATE  = 
ORIGINATOR     = 

OBJECT_NAME    = STARLINK-36633
OBJECT_ID      = 2026-020R
CENTER_NAME    = EARTH
REF_FRAME      = TEME
TIME_SYSTEM    = UTC
MEAN_ELEMENT_THEORY = SGP/SGP4

EPOCH          = 2026-02-18T01:33:40.169664
MEAN_MOTION    = 15.82070780
ECCENTRICITY   = .0002034
INCLINATION    = 42.9962
RA_OF_ASC_NODE = 261.0093
ARG_OF_PERICENTER = 259.5075
MEAN_ANOMALY   = 100.5567

EPHEMERIS_TYPE = 0
CLASSIFICATION_TYPE = U
NORAD_CAT_ID   = 67632
ELEMENT_SET_NO = 999
REV_AT_EPOCH   = 299
BSTAR          = .13469E-2
MEAN_MOTION_DOT = .293665E-2
MEAN_MOTION_DDOT = 0

