STARLINK-36615          
1 67621U 26020E   26049.00957318  .00233840  00000+0  10810-2 0  9997
2 67621  42.9981 261.4575 0002253 271.3641  88.6973 15.82060868  2987
STARLINK-36614          
1 67622U 26020F   26048.71673817  .00368059  00000+0  21428-2 0  9992
2 67622  42.9968 263.5778 0002311 246.2195 113.8433 15.76615166  2938
STARLINK-36600          
1 67623U 26020G   26049.03572851  .00282456  00000+0  16794-2 0  9991
2 67623  42.9971 261.6708 0002074 258.9883 101.0753 15.76378664  2983
STARLINK-36439          
1 67624U 26020H   26049.16668981 -.00024324  00000+0 -14671-3 0  9999
2 67624  42.9982 260.7196 0001852 263.3505 183.0129 15.76379614  4256
STARLINK-36438          
1 67625U 26020J   26049.03135423  .00285205  00000+0  16915-2 0  9993
2 67625  42.9971 261.6350 0001730 267.0683  92.9988 15.76428463  2986
STARLINK-36436          
1 67626U 26020K   26048.94185021  .00432403  00000+0  19514-2 0  9994
2 67626  42.9968 261.8078 0002173 315.8447  44.2251 15.82057753  2973
STARLINK-36502          
1 67627U 26020L   26048.94257814  .00429874  00000+0  19393-2 0  9998
2 67627  42.9963 261.8137 0002089 323.3551  36.7178 15.82072057  2979
STARLINK-36532          
1 67628U 26020M   26049.06686102  .00301204  00000+0  13793-2 0  9993
2 67628  42.9958 261.0227 0002718 247.8769 112.1814 15.82083806  2998
STARLINK-36367          
1 67629U 26020N   26049.16668981  .00019892  00000+0  12481-3 0  9993
2 67629  42.9985 260.5647 0001877 290.2509 218.3139 15.76375178  4257
STARLINK-36416          
1 67630U 26020P   26048.96577848  .00300890  00000+0  17760-2 0  9998
2 67630  42.9960 262.0020 0001414 292.4581  67.6139 15.76491937  2979
STARLINK-36527          
1 67631U 26020Q   26049.06578298  .00254984  00000+0  11741-2 0  9996
2 67631  42.9954 261.0160 0002262 287.6755  72.3870 15.82088525  2997
STARLINK-36633          
1 67632U 26020R   26049.06504826  .00293665  00000+0  13469-2 0  9991
2 67632  42.9962 261.0093 0002034 259.5075 100.5567 15.82070780  2993
